SOYUZ-MS 28             
1 66664U 25275A   26188.50835633  .00005806  00000+0  11369-3 0  9998
2 66664  51.6304 199.5144 0006687 267.6545  92.3678 15.48933372645380
CREW DRAGON 12          
1 67796U 26031A   26188.50835633  .00005806  00000+0  11369-3 0  9996
2 67796  51.6304 199.5144 0006687 267.6545  92.3678 15.48933372627657
SHENZHOU-23 (SZ-23)     
1 69180U 26113A   26187.43325319  .00013455  00000+0  17841-3 0  9992
2 69180  41.4676 204.9373 0002945 272.9146  87.1355 15.58010165296551
